OBJECT_NAME,OBJECT_ID,EPOCH,MEAN_MOTION,ECCENTRICITY,INCLINATION,RA_OF_ASC_NODE,ARG_OF_PERICENTER,MEAN_ANOMALY,EPHEMERIS_TYPE,CLASSIFICATION_TYPE,NORAD_CAT_ID,ELEMENT_SET_NO,REV_AT_EPOCH,BSTAR,MEAN_MOTION_DOT,MEAN_MOTION_DDOT
STARLINK-5783,2023-042AN,2026-06-08T12:51:42.598080,15.27572434,.00012552,43.0003,251.8000,257.7061,102.3650,0,U,56022,999,17693,-.1326842E-5,-.299E-5,0
STARLINK-5771,2023-042AP,2026-06-08T12:42:40.008672,15.27574758,.00013037,43.0018,252.6012,260.8259,99.2445,0,U,56023,999,17692,.2619328E-5,-.19E-5,0
STARLINK-5772,2023-042AQ,2026-06-08T13:08:21.728544,15.27576908,.00013157,43.0006,251.8796,275.6405,84.4296,0,U,56024,999,17693,.14342062E-4,.133E-5,0
STARLINK-5766,2023-042AR,2026-06-08T12:40:48.601920,15.27582237,.0001659,43.0033,252.5926,274.0470,86.0192,0,U,56025,999,17692,-.1867941E-5,-.314E-5,0
STARLINK-5770,2023-042AS,2026-06-08T12:57:15.672672,15.27574033,.0001738,43.0019,251.8304,272.8971,87.1682,0,U,56026,999,17692,.5955199E-5,-.98E-6,0
STARLINK-5777,2023-042AT,2026-06-08T12:49:52.319712,15.27567064,.00018764,43.0034,251.7903,272.7648,87.2989,0,U,56027,999,17693,.1154973E-3,.2916E-4,0
STARLINK-5779,2023-042AU,2026-06-08T13:23:09.749472,15.27575125,.00015002,43.0019,251.9555,278.3812,81.6870,0,U,56028,999,17693,.21752246E-4,.336E-5,0
STARLINK-5774,2023-042AV,2026-06-08T13:02:48.476832,15.27576769,.00013734,43.0018,251.8517,267.4079,92.6616,0,U,56029,999,17693,.6881577E-5,-.73E-6,0
STARLINK-5781,2023-042AW,2026-06-08T13:28:42.500928,15.27588242,.00005472,43.0058,251.9822,272.5629,87.5160,0,U,56030,999,17693,.30902297E-4,.589E-5,0
STARLINK-5785,2023-042AX,2026-06-08T13:12:03.495744,15.27570184,.00017312,43.0009,251.9023,269.8878,90.1776,0,U,56031,999,17693,.33483363E-4,.659E-5,0
STARLINK-5786,2023-042AY,2026-06-07T23:41:39.753888,15.27571744,.0001143,43.0038,255.4140,264.3532,95.7190,0,U,56032,999,17684,-.13540773E-4,-.635E-5,0
STARLINK-5782,2023-042BA,2026-06-08T03:01:04.501056,15.27574608,.00014547,43.0049,254.7293,277.1969,82.8717,0,U,56034,999,17686,.39878935E-4,.835E-5,0
STARLINK-5792,2023-042BB,2026-06-08T13:34:14.037600,15.27582467,.00017838,42.9985,252.0088,274.2701,85.7946,0,U,56035,999,17693,.77196117E-4,.1863E-4,0
STARLINK-5790,2023-042BC,2026-06-07T23:39:47.918592,15.27576630,.00018742,43.0039,255.3890,297.2392,62.8268,0,U,56036,999,17684,.9303334E-5,-.6E-7,0
STARLINK-5758,2023-042BD,2026-06-08T12:30:28.954944,15.27509644,.00006466,43.0040,237.7798,317.3370,42.7432,0,U,56037,999,17709,.66786646E-3,.18122E-3,0
STARLINK-5793,2023-042BE,2026-06-06T13:32:22.729344,15.27605102,.00039971,43.0070,263.6402,266.6313,93.4082,0,U,56038,999,17662,.14788252E-3,.3812E-4,0
STARLINK-5795,2023-042BF,2026-06-08T16:04:38.075232,15.27578039,.0001704,43.0047,237.1756,279.1071,80.9588,0,U,56039,999,17711,.38452E-4,.796E-5,0
STARLINK-5798,2023-042BG,2026-06-07T22:54:27.984384,15.27579655,.00021714,43.0050,241.2581,281.4663,78.5945,0,U,56040,999,17700,.28383139E-4,.519E-5,0
STARLINK-5800,2023-042BH,2026-06-08T12:13:04.548288,15.27566604,.00025766,43.0001,241.0828,280.1940,79.8621,0,U,56041,999,17705,-.118094E-3,-.351E-4,0
ONEWEB-0537,2023-043A,2026-06-08T07:16:15.269664,13.16594065,.00022726,87.9099,230.5356,101.9540,258.1846,0,U,56046,999,15779,-.5777986E-5,.11E-6,0
ONEWEB-0538,2023-043B,2026-06-08T18:03:45.091008,13.16594320,.0002057,87.9101,230.4485,106.3649,253.7709,0,U,56047,999,15786,-.42964E-3,-.151E-5,0
ONEWEB-0546,2023-043C,2026-06-08T17:45:30.917952,13.16594456,.0002742,87.9103,230.4508,102.7720,257.3717,0,U,56048,999,15785,-.31635E-3,-.108E-5,0
ONEWEB-0547,2023-043D,2026-06-08T18:28:58.884672,13.21825050,.0001888,87.9261,245.6482,103.3773,256.7572,0,U,56049,999,15711,-.14768E-3,-.48E-6,0
ONEWEB-0548,2023-043E,2026-06-08T05:34:47.442720,13.16595937,.0002175,87.9099,230.5484,86.7366,273.4014,0,U,56050,999,15778,.12327E-3,.6E-6,0
ONEWEB-0549,2023-043F,2026-06-08T18:20:30.640992,13.21824669,.0001985,87.9257,245.6564,111.0906,249.0441,0,U,56051,999,15711,-.46138E-3,-.178E-5,0
ONEWEB-0550,2023-043G,2026-06-08T18:01:08.882400,13.21824987,.0001986,87.9257,245.6566,93.6309,266.5052,0,U,56052,999,15711,-.2615E-3,-.95E-6,0
ONEWEB-0551,2023-043H,2026-06-08T18:56:03.366240,13.15548366,.0001765,87.8999,260.8995,110.2113,249.9207,0,U,56053,999,15529,-.9069E-4,-.21E-6,0
ONEWEB-0552,2023-043J,2026-06-08T12:26:51.008352,13.21828350,.00018283,87.9253,245.7086,98.8201,261.3140,0,U,56054,999,15708,.72372725E-4,.43E-6,0
ONEWEB-0553,2023-043K,2026-06-08T17:54:37.639872,13.16593996,.0002457,87.9101,230.4500,98.0936,262.0474,0,U,56055,999,15786,-.20991E-3,-.67E-6,0
ONEWEB-0554,2023-043L,2026-06-08T17:36:22.068000,13.16605944,.0001618,87.9100,230.4619,88.6366,271.4950,0,U,56056,999,15784,-.91849E-2,-.3498E-4,0
