STARLINK-5783           
1 56022U 23042AN  26159.53590970 -.00000299  00000+0 -13268-5 0  9993
2 56022  43.0003 251.8000 0001255 257.7061 102.3650 15.27572434176937
STARLINK-5771           
1 56023U 23042AP  26159.52962973 -.00000190  00000+0  26193-5 0  9999
2 56023  43.0018 252.6012 0001303 260.8259  99.2445 15.27574758176920
STARLINK-5772           
1 56024U 23042AQ  26159.54747371  .00000133  00000+0  14342-4 0  9993
2 56024  43.0006 251.8796 0001315 275.6405  84.4296 15.27576908176938
STARLINK-5766           
1 56025U 23042AR  26159.52834030 -.00000314  00000+0 -18679-5 0  9992
2 56025  43.0033 252.5926 0001659 274.0470  86.0192 15.27582237176922
STARLINK-5770           
1 56026U 23042AS  26159.53976473 -.00000098  00000+0  59552-5 0  9995
2 56026  43.0019 251.8304 0001738 272.8971  87.1682 15.27574033176920
STARLINK-5777           
1 56027U 23042AT  26159.53463333  .00002916  00000+0  11550-3 0  9996
2 56027  43.0034 251.7903 0001876 272.7648  87.2989 15.27567064176933
STARLINK-5779           
1 56028U 23042AU  26159.55775173  .00000336  00000+0  21752-4 0  9997
2 56028  43.0019 251.9555 0001500 278.3812  81.6870 15.27575125176935
STARLINK-5774           
1 56029U 23042AV  26159.54361663 -.00000073  00000+0  68816-5 0  9994
2 56029  43.0018 251.8517 0001373 267.4079  92.6616 15.27576769176939
STARLINK-5781           
1 56030U 23042AW  26159.56160302  .00000589  00000+0  30902-4 0  9990
2 56030  43.0058 251.9822 0000547 272.5629  87.5160 15.27588242176931
STARLINK-5785           
1 56031U 23042AX  26159.55004046  .00000659  00000+0  33483-4 0  9997
2 56031  43.0009 251.9023 0001731 269.8878  90.1776 15.27570184176931
STARLINK-5786           
1 56032U 23042AY  26158.98726567 -.00000635  00000+0 -13541-4 0  9992
2 56032  43.0038 255.4140 0001143 264.3532  95.7190 15.27571744176841
STARLINK-5782           
1 56034U 23042BA  26159.12574654  .00000835  00000+0  39879-4 0  9991
2 56034  43.0049 254.7293 0001454 277.1969  82.8717 15.27574608176863
STARLINK-5792           
1 56035U 23042BB  26159.56544025  .00001863  00000+0  77196-4 0  9995
2 56035  42.9985 252.0088 0001783 274.2701  85.7946 15.27582467176937
STARLINK-5790           
1 56036U 23042BC  26158.98597128 -.00000006  00000+0  93033-5 0  9991
2 56036  43.0039 255.3890 0001874 297.2392  62.8268 15.27576630176847
STARLINK-5758           
1 56037U 23042BD  26159.52116846  .00018122  00000+0  66787-3 0  9998
2 56037  43.0040 237.7798 0000646 317.3370  42.7432 15.27509644177096
STARLINK-5793           
1 56038U 23042BE  26157.56415196  .00003812  00000+0  14788-3 0  9995
2 56038  43.0070 263.6402 0003997 266.6313  93.4082 15.27605102176623
STARLINK-5795           
1 56039U 23042BF  26159.66988513  .00000796  00000+0  38452-4 0  9990
2 56039  43.0047 237.1756 0001704 279.1071  80.9588 15.27578039177115
STARLINK-5798           
1 56040U 23042BG  26158.95449056  .00000519  00000+0  28383-4 0  9992
2 56040  43.0050 241.2581 0002171 281.4663  78.5945 15.27579655177008
STARLINK-5800           
1 56041U 23042BH  26159.50908042 -.00003510  00000+0 -11809-3 0  9990
2 56041  43.0001 241.0828 0002576 280.1940  79.8621 15.27566604177050
ONEWEB-0537             
1 56046U 23043A   26159.30295451  .00000011  00000+0 -57780-5 0  9999
2 56046  87.9099 230.5356 0002272 101.9540 258.1846 13.16594065157795
ONEWEB-0538             
1 56047U 23043B   26159.75260522 -.00000151  00000+0 -42964-3 0  9992
2 56047  87.9101 230.4485 0002057 106.3649 253.7709 13.16594320157863
ONEWEB-0546             
1 56048U 23043C   26159.73994118 -.00000108  00000+0 -31635-3 0  9991
2 56048  87.9103 230.4508 0002742 102.7720 257.3717 13.16594456157851
ONEWEB-0547             
1 56049U 23043D   26159.77012598 -.00000048  00000+0 -14768-3 0  9990
2 56049  87.9261 245.6482 0001888 103.3773 256.7572 13.21825050157115
ONEWEB-0548             
1 56050U 23043E   26159.23249355  .00000060  00000+0  12327-3 0  9997
2 56050  87.9099 230.5484 0002175  86.7366 273.4014 13.16595937157785
ONEWEB-0549             
1 56051U 23043F   26159.76424353 -.00000178  00000+0 -46138-3 0  9998
2 56051  87.9257 245.6564 0001985 111.0906 249.0441 13.21824669157111
ONEWEB-0550             
1 56052U 23043G   26159.75079725 -.00000095  00000+0 -26150-3 0  9997
2 56052  87.9257 245.6566 0001986  93.6309 266.5052 13.21824987157112
ONEWEB-0551             
1 56053U 23043H   26159.78892785 -.00000021  00000+0 -90690-4 0  9990
2 56053  87.8999 260.8995 0001765 110.2113 249.9207 13.15548366155295
ONEWEB-0552             
1 56054U 23043J   26159.51864593  .00000043  00000+0  72373-4 0  9998
2 56054  87.9253 245.7086 0001828  98.8201 261.3140 13.21828350157086
ONEWEB-0553             
1 56055U 23043K   26159.74626898 -.00000067  00000+0 -20991-3 0  9994
2 56055  87.9101 230.4500 0002457  98.0936 262.0474 13.16593996157860
ONEWEB-0554             
1 56056U 23043L   26159.73358875 -.00003498  00000+0 -91849-2 0  9991
2 56056  87.9100 230.4619 0001618  88.6366 271.4950 13.16605944157849
